[
  {
    "name": "STARLINK-3788",
    "noradId": "52271",
    "line1": "1 52271U 22041L   26180.83429116 -.00000431  00000+0 -90036-5 0  9999",
    "line2": "2 52271  53.1596 325.5105 0001110  87.6273 272.4845 15.08829082231297"
  },
  {
    "name": "STARLINK-3781",
    "noradId": "52272",
    "line1": "1 52272U 22041M   26181.83335647  .01333126  00000+0  54945-1 0  9990",
    "line2": "2 52272  53.1610 320.7319 0001238 109.6341 124.9106 15.20864800  5797"
  },
  {
    "name": "STARLINK-3782",
    "noradId": "52273",
    "line1": "1 52273U 22041N   26181.83335647  .00120170  00000+0  61603-2 0  9993",
    "line2": "2 52273  53.1603 311.3174 0001123 126.2402 138.9852 15.15631181  5781"
  },
  {
    "name": "STARLINK-3790",
    "noradId": "52274",
    "line1": "1 52274U 22041P   26181.83335647  .00131489  00000+0  61698-2 0  9993",
    "line2": "2 52274  53.1607 320.8191 0001959  91.9068 122.0964 15.18663945  5631"
  },
  {
    "name": "STARLINK-3784",
    "noradId": "52275",
    "line1": "1 52275U 22041Q   26180.82692953 -.00000576  00000+0 -18125-4 0  9991",
    "line2": "2 52275  53.1604 325.5434 0001078  86.9911 273.1204 15.08831717231295"
  },
  {
    "name": "STARLINK-3778",
    "noradId": "52276",
    "line1": "1 52276U 22041R   26181.80949237 -.00001844  00000+0 -97807-4 0  9994",
    "line2": "2 52276  53.1618 321.1263 0001284  88.3919 271.7219 15.08834020231443"
  },
  {
    "name": "STARLINK-3780",
    "noradId": "52278",
    "line1": "1 52278U 22041T   26181.80580934  .00000249  00000+0  33757-4 0  9991",
    "line2": "2 52278  53.1611 321.1447 0001166  85.2246 274.8878 15.08833373231445"
  },
  {
    "name": "STARLINK-3764",
    "noradId": "52280",
    "line1": "1 52280U 22041V   26181.83335647  .00122873  00000+0  56745-2 0  9994",
    "line2": "2 52280  53.1604 320.7939 0000590 114.3152 213.6390 15.19262024  5788"
  },
  {
    "name": "STARLINK-3779",
    "noradId": "52281",
    "line1": "1 52281U 22041W   26181.74420819 -.00000573  00000+0 -17891-4 0  9996",
    "line2": "2 52281  53.1601 321.4198 0001182  88.8206 271.2921 15.08829056231439"
  },
  {
    "name": "STARLINK-3783",
    "noradId": "52282",
    "line1": "1 52282U 22041X   26181.78790080  .00055523  00000+0  34462-2 0  9995",
    "line2": "2 52282  53.1602 311.2198 0001496  98.3538 261.7623 15.09190134231577"
  },
  {
    "name": "STARLINK-3789",
    "noradId": "52283",
    "line1": "1 52283U 22041Y   26180.80852255  .00000773  00000+0  66654-4 0  9998",
    "line2": "2 52283  53.1606 325.6260 0001151  83.0107 277.1016 15.08840155231292"
  },
  {
    "name": "STARLINK-3561",
    "noradId": "52284",
    "line1": "1 52284U 22041Z   26181.83335647  .00081091  00000+0  47521-2 0  9996",
    "line2": "2 52284  53.1606 310.9949 0000957  35.9921 262.6430 15.11088916  5737"
  },
  {
    "name": "STARLINK-3802",
    "noradId": "52286",
    "line1": "1 52286U 22041AB  26181.77360846 -.00000014  00000+0  17222-4 0  9994",
    "line2": "2 52286  53.1595 311.2897 0001080  73.0541 287.0569 15.08835083231579"
  },
  {
    "name": "STARLINK-3822",
    "noradId": "52287",
    "line1": "1 52287U 22041AC  26181.83335647  .00128118  00000+0  66018-2 0  9993",
    "line2": "2 52287  53.1597 320.9393 0001263 140.4880 131.1417 15.15403790  5831"
  },
  {
    "name": "STARLINK-3776",
    "noradId": "52288",
    "line1": "1 52288U 22041AD  26181.50497228 -.00000660  00000+0 -23405-4 0  9990",
    "line2": "2 52288  53.1609 312.4962 0001307  88.7881 271.3261 15.08834176231538"
  },
  {
    "name": "STARLINK-3751",
    "noradId": "52289",
    "line1": "1 52289U 22041AE  26181.83335647  .00115206  00000+0  64475-2 0  9994",
    "line2": "2 52289  53.1599 310.9992 0001233 139.9923 136.0403 15.12536541  5834"
  },
  {
    "name": "STARLINK-3772",
    "noradId": "52290",
    "line1": "1 52290U 22041AF  26181.75984576  .00000084  00000+0  23399-4 0  9997",
    "line2": "2 52290  53.1605 311.3487 0001142  92.8295 267.2827 15.08835957231573"
  },
  {
    "name": "STARLINK-3753",
    "noradId": "52292",
    "line1": "1 52292U 22041AH  26181.09280808  .00000386  00000+0  42333-4 0  9997",
    "line2": "2 52292  53.1598 314.3478 0001179  88.9654 271.1473 15.08838258231471"
  },
  {
    "name": "STARLINK-3771",
    "noradId": "52293",
    "line1": "1 52293U 22041AJ  26181.50223640  .00001157  00000+0  90766-4 0  9995",
    "line2": "2 52293  53.1599 312.5170 0001194  94.7894 265.3234 15.08842981231535"
  },
  {
    "name": "STARLINK-3777",
    "noradId": "52294",
    "line1": "1 52294U 22041AK  26181.08912919  .00000030  00000+0  19971-4 0  9991",
    "line2": "2 52294  53.1598 314.3638 0001145  90.8563 269.2560 15.08836121231477"
  },
  {
    "name": "STARLINK-3765",
    "noradId": "52295",
    "line1": "1 52295U 22041AL  26181.69618409  .00012980  00000+0  82910-3 0  9995",
    "line2": "2 52295  53.1620 311.6324 0001930  64.2796 295.8394 15.08972459231566"
  },
  {
    "name": "STARLINK-3766",
    "noradId": "52296",
    "line1": "1 52296U 22041AM  26181.74049071  .00002168  00000+0  15432-3 0  9997",
    "line2": "2 52296  53.1592 311.4368 0001195  81.4525 278.6602 15.08827720231577"
  },
  {
    "name": "STARLINK-3758",
    "noradId": "52297",
    "line1": "1 52297U 22041AN  26181.09648761  .00000681  00000+0  60864-4 0  9995",
    "line2": "2 52297  53.1604 314.3316 0001136  85.3192 274.7929 15.08838936231474"
  },
  {
    "name": "STARLINK-3760",
    "noradId": "52298",
    "line1": "1 52298U 22041AP  26181.83242131  .00002867  00000+0  19809-3 0  9999",
    "line2": "2 52298  53.1602 310.6359 0001118  94.4388 265.6731 15.08851025231594"
  },
  {
    "name": "STARLINK-3769",
    "noradId": "52300",
    "line1": "1 52300U 22041AR  26181.06692722  .00014497  00000+0  92427-3 0  9992",
    "line2": "2 52300  53.1599 314.4634 0000691 101.9611 258.1458 15.08949508232698"
  },
  {
    "name": "STARLINK-3768",
    "noradId": "52301",
    "line1": "1 52301U 22041AS  26180.75424700  .00000717  00000+0  63137-4 0  9994",
    "line2": "2 52301  53.1600 315.8690 0001269  82.9089 277.2047 15.08837037231427"
  },
  {
    "name": "STARLINK-3564",
    "noradId": "52302",
    "line1": "1 52302U 22041AT  26181.83335647  .00083050  00000+0  28653-2 0  9999",
    "line2": "2 52302  53.1592 299.9561 0000665  36.5109  54.7304 15.29277119  5834"
  },
  {
    "name": "STARLINK-3742",
    "noradId": "52303",
    "line1": "1 52303U 22041AU  26181.79937172  .00000688  00000+0  61313-4 0  9994",
    "line2": "2 52303  53.1607 311.1744 0001224  98.8080 261.3050 15.08832711232808"
  },
  {
    "name": "STARLINK-3744",
    "noradId": "52304",
    "line1": "1 52304U 22041AV  26181.05323609  .00002142  00000+0  15261-3 0  9995",
    "line2": "2 52304  53.1611 304.5290 0001184  84.7011 275.4115 15.08845507231601"
  },
  {
    "name": "STARLINK-3724",
    "noradId": "52305",
    "line1": "1 52305U 22041AW  26181.73683801 -.00000582  00000+0 -18474-4 0  9992",
    "line2": "2 52305  53.1588 311.5590 0001227  95.9053 264.2078 15.08827512231570"
  }
]