OBJECT_NAME,OBJECT_ID,EPOCH,MEAN_MOTION,ECCENTRICITY,INCLINATION,RA_OF_ASC_NODE,ARG_OF_PERICENTER,MEAN_ANOMALY,EPHEMERIS_TYPE,CLASSIFICATION_TYPE,NORAD_CAT_ID,ELEMENT_SET_NO,REV_AT_EPOCH,BSTAR,MEAN_MOTION_DOT,MEAN_MOTION_DDOT
STARLINK-3788,2022-041L,2026-06-29T20:01:22.756224,15.08829082,.00011107,53.1596,325.5105,87.6273,272.4845,0,U,52271,999,23129,-.9003557E-5,-.431E-5,0
STARLINK-3781,2022-041M,2026-06-30T20:00:01.999008,15.20864800,.0001238,53.1610,320.7319,109.6341,124.9106,0,U,52272,999,579,.54945E-1,.1333126E-1,0
STARLINK-3782,2022-041N,2026-06-30T20:00:01.999008,15.15631181,.0001123,53.1603,311.3174,126.2402,138.9852,0,U,52273,999,578,.61603E-2,.12017E-2,0
STARLINK-3790,2022-041P,2026-06-30T20:00:01.999008,15.18663945,.0001959,53.1607,320.8191,91.9068,122.0964,0,U,52274,999,563,.61698E-2,.131489E-2,0
STARLINK-3784,2022-041Q,2026-06-29T19:50:46.711392,15.08831717,.00010789,53.1604,325.5434,86.9911,273.1204,0,U,52275,999,23129,-.18125445E-4,-.576E-5,0
STARLINK-3778,2022-041R,2026-06-30T19:25:40.140768,15.08834020,.0001284,53.1618,321.1263,88.3919,271.7219,0,U,52276,999,23144,-.97807E-4,-.1844E-4,0
STARLINK-3780,2022-041T,2026-06-30T19:20:21.926976,15.08833373,.0001166,53.1611,321.1447,85.2246,274.8878,0,U,52278,999,23144,.33757E-4,.249E-5,0
STARLINK-3764,2022-041V,2026-06-30T20:00:01.999008,15.19262024,.000059,53.1604,320.7939,114.3152,213.6390,0,U,52280,999,578,.56745E-2,.122873E-2,0
STARLINK-3779,2022-041W,2026-06-30T17:51:39.587616,15.08829056,.0001182,53.1601,321.4198,88.8206,271.2921,0,U,52281,999,23143,-.17891E-4,-.573E-5,0
STARLINK-3783,2022-041X,2026-06-30T18:54:34.629120,15.09190134,.0001496,53.1602,311.2198,98.3538,261.7623,0,U,52282,999,23157,.34462E-2,.55523E-3,0
STARLINK-3789,2022-041Y,2026-06-29T19:24:16.348320,15.08840155,.00011519,53.1606,325.6260,83.0107,277.1016,0,U,52283,999,23129,.66654038E-4,.773E-5,0
STARLINK-3561,2022-041Z,2026-06-30T20:00:01.999008,15.11088916,.0000957,53.1606,310.9949,35.9921,262.6430,0,U,52284,999,573,.47521E-2,.81091E-3,0
STARLINK-3802,2022-041AB,2026-06-30T18:33:59.770944,15.08835083,.000108,53.1595,311.2897,73.0541,287.0569,0,U,52286,999,23157,.17222E-4,-.14E-6,0
STARLINK-3822,2022-041AC,2026-06-30T20:00:01.999008,15.15403790,.0001263,53.1597,320.9393,140.4880,131.1417,0,U,52287,999,583,.66018E-2,.128118E-2,0
STARLINK-3776,2022-041AD,2026-06-30T12:07:09.604992,15.08834176,.00013078,53.1609,312.4962,88.7881,271.3261,0,U,52288,999,23153,-.23405246E-4,-.66E-5,0
STARLINK-3751,2022-041AE,2026-06-30T20:00:01.999008,15.12536541,.0001233,53.1599,310.9992,139.9923,136.0403,0,U,52289,999,583,.64475E-2,.115206E-2,0
STARLINK-3772,2022-041AF,2026-06-30T18:14:10.673664,15.08835957,.0001142,53.1605,311.3487,92.8295,267.2827,0,U,52290,999,23157,.23399E-4,.84E-6,0
STARLINK-3753,2022-041AH,2026-06-30T02:13:38.618112,15.08838258,.00011799,53.1598,314.3478,88.9654,271.1473,0,U,52292,999,23147,.42333475E-4,.386E-5,0
STARLINK-3771,2022-041AJ,2026-06-30T12:03:13.224960,15.08842981,.00011943,53.1599,312.5170,94.7894,265.3234,0,U,52293,999,23153,.90766095E-4,.1157E-4,0
STARLINK-3777,2022-041AK,2026-06-30T02:08:20.762016,15.08836121,.00011459,53.1598,314.3638,90.8563,269.2560,0,U,52294,999,23147,.19971429E-4,.3E-6,0
STARLINK-3765,2022-041AL,2026-06-30T16:42:30.305376,15.08972459,.000193,53.1620,311.6324,64.2796,295.8394,0,U,52295,999,23156,.8291E-3,.1298E-3,0
STARLINK-3766,2022-041AM,2026-06-30T17:46:18.397344,15.08827720,.0001195,53.1592,311.4368,81.4525,278.6602,0,U,52296,999,23157,.15432E-3,.2168E-4,0
STARLINK-3758,2022-041AN,2026-06-30T02:18:56.529504,15.08838936,.00011369,53.1604,314.3316,85.3192,274.7929,0,U,52297,999,23147,.60864395E-4,.681E-5,0
STARLINK-3760,2022-041AP,2026-06-30T19:58:41.201184,15.08851025,.0001118,53.1602,310.6359,94.4388,265.6731,0,U,52298,999,23159,.19809E-3,.2867E-4,0
STARLINK-3769,2022-041AR,2026-06-30T01:36:22.511808,15.08949508,.00006916,53.1599,314.4634,101.9611,258.1458,0,U,52300,999,23269,.92426907E-3,.14497E-3,0
STARLINK-3768,2022-041AS,2026-06-29T18:06:06.940800,15.08837037,.00012697,53.1600,315.8690,82.9089,277.2047,0,U,52301,999,23142,.63137308E-4,.717E-5,0
STARLINK-3564,2022-041AT,2026-06-30T20:00:01.999008,15.29277119,.0000665,53.1592,299.9561,36.5109,54.7304,0,U,52302,999,583,.28653E-2,.8305E-3,0
STARLINK-3742,2022-041AU,2026-06-30T19:11:05.716608,15.08832711,.0001224,53.1607,311.1744,98.8080,261.3050,0,U,52303,999,23280,.61313E-4,.688E-5,0
STARLINK-3744,2022-041AV,2026-06-30T01:16:39.598176,15.08845507,.00011841,53.1611,304.5290,84.7011,275.4115,0,U,52304,999,23160,.15261477E-3,.2142E-4,0
STARLINK-3724,2022-041AW,2026-06-30T17:41:02.804064,15.08827512,.0001227,53.1588,311.5590,95.9053,264.2078,0,U,52305,999,23157,-.18474E-4,-.582E-5,0
